MEAN_MOTION;ECCENTRICITY;INCLINATION;RA_OF_ASC_NODE;ARG_OF_PERICENTER;MEAN_ANOMALY;BSTAR;MEAN_MOTION_DOT;MEAN_MOTION_DDOT;TYPE
14.3888829;0.001084;45.0163;85.9003;265.4683;94.4927;7.7779E-5;9.9E-7;0;Orbcomm
14.3888858;0.0010835;45.0163;82.934;268.3836;91.5772;7.7467E-5;9.8E-7;0;Orbcomm
14.38889169;0.0010831;45.0164;78.3199;272.9635;86.9974;8.4654E-5;1.21E-6;0;Orbcomm
14.38889518;0.001083;45.0166;75.0239;276.2149;83.7466;8.5626E-5;1.24E-6;0;Orbcomm
14.38889713;0.0010822;45.0166;73.7057;277.5233;82.4386;8.8924E-5;1.34E-6;0;Orbcomm
14.38890184;0.0010806;45.0167;69.0916;282.0652;77.8986;8.7301E-5;1.29E-6;0;Orbcomm
14.38890727;0.0010761;45.0169;61.8407;289.4513;70.5173;7.4244E-5;8.8E-7;0;Orbcomm
14.38890929;0.0010766;45.017;61.5111;289.5352;70.4334;7.8285E-5;1.01E-6;0;Orbcomm
14.38891037;0.0010726;45.0171;57.2267;294.0802;65.8924;6.7297E-5;6.7E-7;0;Orbcomm
14.38891203;0.0010707;45.0171;55.2494;295.9503;64.0242;6.6024E-5;6.3E-7;0;Orbcomm
14.38891871;0.001064;45.0173;47.669;303.4898;56.4934;6.7958E-5;6.9E-7;0;Orbcomm
14.38892047;0.0010616;45.0173;45.6916;305.4578;54.5279;6.8472E-5;7.0E-7;0;Orbcomm
14.38892373;0.0010572;45.0174;41.7367;309.4203;50.571;6.8008E-5;6.9E-7;0;Orbcomm
14.38892741;0.0010523;45.0175;38.1113;313.0575;46.9392;6.9805E-5;7.4E-7;0;Orbcomm
14.38892904;0.0010492;45.0176;36.1339;315.1033;44.8967;6.8951E-5;7.2E-7;0;Orbcomm
14.38893095;0.0010458;45.0177;33.4972;317.738;42.2662;6.5254E-5;6.0E-7;0;Orbcomm
14.38893316;0.0010423;45.0177;31.8494;319.4941;40.5131;6.9238E-5;7.2E-7;0;Orbcomm
14.3889366;0.0010388;45.0178;28.8832;322.4332;37.5791;7.1881E-5;8.1E-7;0;Orbcomm
14.38893724;0.0010377;45.0179;28.5536;322.8204;37.1925;7.3178E-5;8.5E-7;0;Orbcomm
14.38893901;0.001035;45.0179;27.2354;324.2134;35.8021;7.7089E-5;9.7E-7;0;Orbcomm
14.3889444;0.0010288;45.0179;23.9397;327.6145;32.4071;8.8463E-5;1.32E-6;0;Orbcomm
14.38894637;0.0010271;45.0179;22.6216;329.0248;30.9994;9.3072E-5;1.47E-6;0;Orbcomm
14.38894894;0.0010245;45.018;20.6441;331.0671;28.9609;9.4447E-5;1.51E-6;0;Orbcomm
14.38895085;0.0010207;45.018;18.9963;332.7646;27.2667;9.5165E-5;1.53E-6;0;Orbcomm
14.38895208;0.0010187;45.0179;17.6781;334.197;25.837;9.4545E-5;1.51E-6;0;Orbcomm
14.38895589;0.0010123;45.0179;14.3823;337.6155;22.4251;9.2802E-5;1.46E-6;0;Orbcomm
14.38895749;0.0010096;45.0179;12.7346;339.348;20.696;9.0242E-5;1.38E-6;0;Orbcomm
14.38896029;0.0010039;45.0179;9.7684;342.4333;17.6168;8.4538E-5;1.2E-6;0;Orbcomm
14.38896527;0.0009946;45.0179;5.1545;347.2855;12.7741;8.1314E-5;1.1E-6;0;Orbcomm
14.38896547;0.0009939;45.0179;4.8249;347.6399;12.4205;8.0595E-5;1.08E-6;0;Orbcomm
14.38896654;0.0009923;45.0179;3.8363;348.7212;11.3413;8.1204E-5;1.1E-6;0;Orbcomm
14.38897531;0.0009759;45.0178;355.5969;357.573;2.507;8.5689E-5;1.24E-6;0;Orbcomm
14.38897607;0.0009746;45.0178;354.6083;358.6402;1.4419;8.5675E-5;1.24E-6;0;Orbcomm
14.38897996;0.0009668;45.0178;350.6534;2.9169;357.1735;8.5628E-5;1.23E-6;0;Orbcomm
14.38898053;0.0009651;45.0177;349.6647;4.0286;356.0639;8.3261E-5;1.16E-6;0;Orbcomm
14.38898244;0.0009619;45.0177;347.6872;6.1283;353.9682;8.2116E-5;1.12E-6;0;Orbcomm
14.38898428;0.000958;45.0177;346.0393;7.9891;352.1109;8.1533E-5;1.11E-6;0;Orbcomm
14.38898579;0.000956;45.0176;344.7211;9.4757;350.627;8.1507E-5;1.11E-6;0;Orbcomm
14.38898782;0.0009522;45.0176;342.7436;11.6474;348.4593;8.0334E-5;1.07E-6;0;Orbcomm
14.38898945;0.0009491;45.0176;341.0958;13.5194;346.5907;7.8612E-5;1.02E-6;0;Orbcomm
14.38899529;0.0009421;45.0175;336.8114;18.2468;341.8717;8.3456E-5;1.17E-6;0;Orbcomm
14.38899571;0.0009416;45.0175;336.4818;18.6196;341.4995;8.397E-5;1.18E-6;0;Orbcomm
14.3890022;0.000934;45.0174;331.8679;23.7505;336.3773;9.1968E-5;1.43E-6;0;Orbcomm
14.38900367;0.0009328;45.0174;330.8792;24.8622;335.2674;9.5033E-5;1.53E-6;0;Orbcomm
14.38900917;0.0009269;45.0173;327.913;28.228;331.907;0.0001054;1.85E-6;0;Orbcomm
14.38901794;0.0009176;45.017;322.3101;34.6512;325.4933;0.00011132;2.03E-6;0;Orbcomm
14.38901859;0.0009168;45.017;321.651;35.438;324.7077;0.00011012;1.99E-6;0;Orbcomm
14.38902423;0.0009108;45.0168;317.3664;40.3614;319.7909;0.00010746;1.91E-6;0;Orbcomm
14.38902721;0.0009075;45.0168;315.0593;42.9985;317.1572;0.00010474;1.83E-6;0;Orbcomm
14.3890283;0.0009059;45.0167;313.7409;44.4709;315.6865;0.00010131;1.72E-6;0;Orbcomm
14.38903392;0.0008982;45.0166;308.4675;50.6844;309.48;9.6119E-5;1.56E-6;0;Orbcomm
14.38903398;0.0008974;45.0166;308.1379;51.0652;309.0995;9.4928E-5;1.52E-6;0;Orbcomm
14.38903787;0.0008925;45.0165;303.5236;56.4227;303.7473;8.9037E-5;1.34E-6;0;Orbcomm
14.38903859;0.0008921;45.0165;302.8645;57.2092;302.9615;8.9E-5;1.34E-6;0;Orbcomm
14.38904217;0.0008885;45.0164;298.9093;61.8467;298.3278;8.5634E-5;1.23E-6;0;Orbcomm
14.38904377;0.0008858;45.0163;295.6134;65.6901;294.4873;7.62E-5;9.4E-7;0;Orbcomm
14.38904572;0.0008847;45.0164;293.9656;67.7882;292.3905;7.4872E-5;9.0E-7;0;Orbcomm
14.38905017;0.0008808;45.0163;289.0217;73.7069;286.4748;6.8683E-5;7.1E-7;0;Orbcomm
14.3890527;0.0008778;45.0163;285.7258;77.7086;282.4745;6.3345E-5;5.4E-7;0;Orbcomm
14.38905703;0.0008751;45.0162;281.4411;82.8203;277.3641;6.6098E-5;6.3E-7;0;Orbcomm
14.3890591;0.0008744;45.0162;279.7933;84.8434;275.3413;6.8749E-5;7.1E-7;0;Orbcomm
14.38906486;0.0008733;45.0161;275.179;90.2924;269.8925;7.7658E-5;9.9E-7;0;Orbcomm
14.38906525;0.0008733;45.0161;274.8494;90.6893;269.4957;7.7867E-5;9.9E-7;0;Orbcomm
14.38907076;0.0008722;45.016;270.2352;96.3106;263.8737;8.1535E-5;1.11E-6;0;Orbcomm
14.38907482;0.0008723;45.016;266.9392;100.2504;259.9328;8.3564E-5;1.17E-6;0;Orbcomm
14.38907948;0.0008736;45.016;262.6544;105.3497;254.8318;8.3001E-5;1.15E-6;0;Orbcomm
14.3890798;0.0008739;45.016;262.3248;105.7669;254.4144;8.2553E-5;1.14E-6;0;Orbcomm
14.38908048;0.0008742;45.016;261.6657;106.5404;253.6406;8.2599E-5;1.14E-6;0;Orbcomm
14.38908597;0.0008748;45.0161;257.7106;111.3209;248.8574;8.7724E-5;1.3E-6;0;Orbcomm
14.38908995;0.000876;45.0161;253.7556;116.0291;244.146;8.8161E-5;1.31E-6;0;Orbcomm
14.38909623;0.0008805;45.0162;248.1526;122.678;237.4919;8.8936E-5;1.34E-6;0;Orbcomm
14.38909811;0.0008817;45.0162;246.5048;124.5888;235.5794;8.852E-5;1.32E-6;0;Orbcomm
14.38910246;0.0008857;45.0162;242.2203;129.6789;230.4842;8.4168E-5;1.19E-6;0;Orbcomm
14.38910752;0.0008914;45.0162;237.2765;135.4612;224.6955;7.8338E-5;1.01E-6;0;Orbcomm
14.38911235;0.0008969;45.0162;232.6624;140.794;219.356;7.5406E-5;9.2E-7;0;Orbcomm
14.38911408;0.0008986;45.0162;231.0145;142.7518;217.3955;7.4942E-5;9.0E-7;0;Orbcomm
14.38911633;0.0009012;45.0162;229.3666;144.6159;215.5289;7.7372E-5;9.8E-7;0;Orbcomm
14.38912002;0.0009044;45.0161;226.0709;148.3923;211.747;8.0659E-5;1.08E-6;0;Orbcomm
14.38912223;0.0009076;45.0161;224.423;150.2635;209.8731;8.3348E-5;1.16E-6;0;Orbcomm
14.38912673;0.0009117;45.016;220.7975;154.3981;205.7321;8.8727E-5;1.33E-6;0;Orbcomm
14.38912747;0.0009137;45.016;219.8088;155.4819;204.6466;8.7717E-5;1.3E-6;0;Orbcomm
14.38913104;0.0009205;45.0159;215.1946;160.6969;199.423;8.1536E-5;1.11E-6;0;Orbcomm
14.38913509;0.0009279;45.0158;210.2509;166.1995;193.9109;7.5851E-5;9.3E-7;0;Orbcomm
14.38913536;0.000928;45.0158;209.9214;166.5755;193.5342;7.5791E-5;9.3E-7;0;Orbcomm
14.38913585;0.0009293;45.0158;209.2622;167.31;192.7985;7.4387E-5;8.9E-7;0;Orbcomm
14.38913855;0.0009375;45.0158;204.648;172.3743;187.725;6.6074E-5;6.3E-7;0;Orbcomm
14.38914336;0.0009446;45.0158;200.0339;177.4173;182.6726;7.0577E-5;7.7E-7;0;Orbcomm
14.38914541;0.0009481;45.0158;197.7268;179.9688;180.1163;7.172E-5;8.0E-7;0;Orbcomm
14.38914853;0.0009512;45.0157;195.7494;182.0992;177.9818;7.6995E-5;9.7E-7;0;Orbcomm
14.38915132;0.0009559;45.0157;192.783;185.3247;174.7502;7.5852E-5;9.3E-7;0;Orbcomm
14.38915768;0.0009651;45.0155;187.8392;190.608;169.4567;7.7167E-5;9.7E-7;0;Orbcomm
14.38915958;0.0009675;45.0155;186.1914;192.3387;167.7226;7.7353E-5;9.8E-7;0;Orbcomm
14.38916318;0.0009743;45.0154;181.9067;196.8781;163.1745;7.0653E-5;7.7E-7;0;Orbcomm
14.38916373;0.0009751;45.0153;181.2476;197.5791;162.4722;6.976E-5;7.4E-7;0;Orbcomm
14.38916785;0.000981;45.0153;176.963;202.1092;157.9334;6.9275E-5;7.3E-7;0;Orbcomm
14.38916804;0.0009821;45.0152;176.6334;202.4281;157.6139;6.8567E-5;7.1E-7;0;Orbcomm
14.38917486;0.0009887;45.0151;172.0191;207.2097;152.8235;8.1839E-5;1.12E-6;0;Orbcomm
14.38917486;0.0009887;45.0151;172.0191;207.2097;152.8235;8.1839E-5;1.12E-6;0;Orbcomm
14.38917962;0.0009956;45.015;167.4047;211.9599;148.0647;8.2539E-5;1.14E-6;0;Orbcomm
14.38918283;0.0010002;45.0149;164.4382;215.0121;145.0071;8.2902E-5;1.15E-6;0;Orbcomm
14.38918939;0.0010018;45.0149;162.7903;216.6463;143.3701;0.00010741;1.92E-6;0;Orbcomm
14.3891916;0.001006;45.0149;159.4943;220.0203;139.9905;9.6014E-5;1.56E-6;0;Orbcomm
14.38919187;0.0010072;45.015;158.176;221.338;138.6707;8.8905E-5;1.34E-6;0;Orbcomm
14.38919602;0.0010116;45.015;154.2209;225.3229;134.6796;8.514E-5;1.22E-6;0;Orbcomm
14.38919673;0.0010121;45.015;153.2322;226.3325;133.6685;8.2674E-5;1.15E-6;0;Orbcomm
14.38920166;0.0010164;45.0151;148.9474;230.6233;129.3716;8.376E-5;1.18E-6;0;Orbcomm
14.38920115;0.0010167;45.0151;148.6179;230.9607;129.0337;7.8987E-5;1.03E-6;0;Orbcomm
14.38920512;0.0010203;45.0152;144.0036;235.5751;124.4134;7.4274E-5;8.8E-7;0;Orbcomm
14.38920856;0.0010234;45.0152;139.3893;240.1573;119.8258;6.7325E-5;6.7E-7;0;Orbcomm
14.38921087;0.0010254;45.0153;136.0933;243.4138;116.566;6.1068E-5;4.7E-7;0;Orbcomm
14.38921229;0.0010259;45.0153;134.4455;245.0285;114.9498;5.9466E-5;4.2E-7;0;Orbcomm
14.38921392;0.0010273;45.0153;132.1382;247.3158;112.6605;5.5985E-5;3.2E-7;0;Orbcomm
14.38921576;0.0010278;45.0153;129.8312;249.5396;110.435;5.3355E-5;2.3E-7;0;Orbcomm
14.38921909;0.0010283;45.0154;125.2168;254.0918;105.8798;5.1747E-5;1.8E-7;0;Orbcomm
14.38922128;0.0010293;45.0155;121.5913;257.6012;102.3685;5.1392E-5;1.7E-7;0;Orbcomm
14.38922194;0.001029;45.0155;120.6025;258.5819;101.3874;5.1891E-5;1.9E-7;0;Orbcomm
14.38922488;0.0010295;45.0157;115.9882;263.0537;96.9141;5.3474E-5;2.4E-7;0;Orbcomm
14.3892297;0.001028;45.0159;108.4074;270.3787;89.5883;5.1229E-5;1.7E-7;0;Orbcomm
14.3892306;0.0010275;45.016;107.4187;271.3277;88.6394;5.1616E-5;1.8E-7;0;Orbcomm
